[{"OBJECT_NAME":"ORBCOMM FM110","OBJECT_ID":"2015-081D","EPOCH":"2026-03-09T10:51:08.828064","MEAN_MOTION":14.58735323,"ECCENTRICITY":0.00033965,"INCLINATION":47.0012,"RA_OF_ASC_NODE":112.9678,"ARG_OF_PERICENTER":317.5539,"MEAN_ANOMALY":42.5084,"EPHEMERIS_TYPE":0,"CLASSIFICATION_TYPE":"U","NORAD_CAT_ID":41182,"ELEMENT_SET_NO":999,"REV_AT_EPOCH":54306,"BSTAR":0.00025090546,"MEAN_MOTION_DOT":1.012e-5,"MEAN_MOTION_DDOT":0},{"OBJECT_NAME":"UNKNOWN","OBJECT_ID":"","EPOCH":"2026-02-26T01:53:09.671424","MEAN_MOTION":14.72174479,"ECCENTRICITY":0.0063505,"INCLINATION":66.977,"RA_OF_ASC_NODE":318.5702,"ARG_OF_PERICENTER":176.9023,"MEAN_ANOMALY":183.2505,"EPHEMERIS_TYPE":0,"CLASSIFICATION_TYPE":"U","NORAD_CAT_ID":81624,"ELEMENT_SET_NO":999,"REV_AT_EPOCH":65079,"BSTAR":0.00072056,"MEAN_MOTION_DOT":4.588e-5,"MEAN_MOTION_DDOT":0}]
